OBJECT_NAME,OBJECT_ID,EPOCH,MEAN_MOTION,ECCENTRICITY,INCLINATION,RA_OF_ASC_NODE,ARG_OF_PERICENTER,MEAN_ANOMALY,EPHEMERIS_TYPE,CLASSIFICATION_TYPE,NORAD_CAT_ID,ELEMENT_SET_NO,REV_AT_EPOCH,BSTAR,MEAN_MOTION_DOT,MEAN_MOTION_DDOT,OBJECT_TYPE
STARLINK-34840,2025-257AC,2026-03-20T15:44:46.201920,15.30203678,.00013498,53.1571,165.9907,81.4927,278.6227,0,U,66406,999,2135,.52148077E-3,.15119E-3,0,Active
STARLINK-35686,2025-257AD,2026-03-20T15:43:15.122496,15.30201137,.00012234,53.1582,165.9898,87.1973,272.9168,0,U,66407,999,2141,.45584366E-3,.13166E-3,0,Active
STARLINK-35679,2025-257AE,2026-03-20T17:23:21.342048,15.30198755,.00010659,53.1557,165.7062,68.2875,291.8239,0,U,66408,999,2142,-.22628393E-4,-.1029E-4,0,Active
CHUTIAN-2 A,2025-256A,2026-03-21T06:20:37.722336,14.50104459,.00125885,98.2582,148.2007,236.8187,123.1801,0,U,66409,999,1915,.14718386E-3,.528E-5,0,Active
CHUTIAN-2 B,2025-256B,2026-03-21T07:35:19.571136,14.50099740,.00129583,98.2604,148.3296,241.4583,118.5307,0,U,66410,999,1916,.10362146E-3,.359E-5,0,Active
HULIANWANG DIGUI-96,2025-258A,2026-03-21T04:05:30.935616,13.29332734,.00005714,50.0031,251.3119,153.9424,206.1477,0,U,66412,999,1802,.34413724E-4,-.108E-5,0,Active
HULIANWANG DIGUI-97,2025-258B,2026-03-21T04:53:35.290752,13.29333864,.00006023,49.9997,251.4462,155.3971,204.6930,0,U,66413,999,1802,.65471761E-4,-.94E-6,0,Active
HULIANWANG DIGUI-98,2025-258C,2026-03-21T04:41:29.882400,13.29335518,.00006607,50.0034,251.4489,162.9164,197.1730,0,U,66414,999,1802,.59441048E-4,-.96E-6,0,Active
HULIANWANG DIGUI-99,2025-258D,2026-03-21T03:53:27.942144,13.29332882,.00005149,50.0032,251.2694,151.1458,208.9443,0,U,66415,999,1801,.49420182E-4,-.101E-5,0,Active
HULIANWANG DIGUI-100,2025-258E,2026-03-21T04:29:28.152096,13.29335937,.00005025,50.0036,251.4080,150.5536,209.5364,0,U,66416,999,1803,.4548948E-4,-.103E-5,0,Active
HULIANWANG DIGUI-101,2025-258F,2026-03-21T06:05:44.614176,13.29334044,.00005211,49.9986,251.0305,147.6224,212.4680,0,U,66417,999,1804,.44529078E-4,-.103E-5,0,Active
HULIANWANG DIGUI-102,2025-258G,2026-03-21T05:29:34.874304,13.29335892,.00005393,50.0000,250.9124,158.6269,201.4625,0,U,66418,999,1803,.57272343E-4,-.97E-6,0,Active
HULIANWANG DIGUI-103,2025-258H,2026-03-21T05:17:35.882016,13.29334973,.00004558,49.9993,250.8604,147.4121,212.6779,0,U,66419,999,1803,.63419174E-4,-.95E-6,0,Active
HULIANWANG DIGUI-104,2025-258J,2026-03-21T05:05:36.174336,13.29334321,.00005799,50.0010,250.8416,162.5643,197.5249,0,U,66420,999,1802,.580827E-4,-.97E-6,0,Active
STARLINK-35617,2025-259A,2026-03-20T18:29:40.996896,15.27611569,.00010089,42.9980,211.9766,275.5624,84.5113,0,U,66422,999,2118,.12080915E-2,.33164E-3,0,Active
STARLINK-35618,2025-259B,2026-03-20T18:22:16.912992,15.27590951,.00014122,43.0016,211.9364,276.5185,83.5506,0,U,66423,999,2118,.7209791E-3,.19637E-3,0,Active
STARLINK-35588,2025-259C,2026-03-20T18:18:34.170336,15.27602853,.00027143,43.0019,211.9154,254.2303,105.8250,0,U,66424,999,2118,.11645826E-2,.31948E-3,0,Active
STARLINK-35555,2025-259D,2026-03-21T02:03:48.348000,15.27592533,.00015774,43.0000,210.0358,256.7389,103.3287,0,U,66425,999,2123,.94480874E-3,.25838E-3,0,Active
STARLINK-35589,2025-259E,2026-03-20T10:18:32.336352,15.27585564,.00013886,42.9991,213.7096,252.4084,107.6616,0,U,66426,999,2113,.6327617E-3,.17194E-3,0,Active
STARLINK-35611,2025-259F,2026-03-20T18:03:46.383552,15.27602651,.00015739,43.0022,211.8337,274.8044,85.2628,0,U,66427,999,2118,.74656325E-3,.20353E-3,0,Active
STARLINK-35610,2025-259G,2026-03-20T10:07:27.954048,15.27620537,.00012036,43.0025,213.6459,200.9913,159.0889,0,U,66428,999,2113,.10508815E-2,.28805E-3,0,Active
STARLINK-35533,2025-259H,2026-03-20T10:01:53.361408,15.27593697,.00020856,42.9981,213.6196,287.0763,72.9860,0,U,66429,999,2113,.58000805E-3,.15739E-3,0,Active
STARLINK-35470,2025-259J,2026-03-20T17:47:06.192096,15.27626242,.0001162,43.0020,211.7489,304.8666,55.2076,0,U,66430,999,2118,.18717E-2,.51677E-3,0,Active
STARLINK-35439,2025-259K,2026-03-20T17:43:25.853088,15.27567601,.0001706,43.0034,211.7267,286.3161,73.7503,0,U,66431,999,2118,.14113991E-2,.38766E-3,0,Active
STARLINK-35446,2025-259L,2026-03-21T01:32:20.640192,15.27601730,.00019603,43.0044,209.8690,273.2054,86.8574,0,U,66432,999,2123,.61616709E-3,.16743E-3,0,Active
STARLINK-35457,2025-259M,2026-03-21T01:28:38.922240,15.27593067,.00010672,42.9986,209.8488,285.3574,74.7160,0,U,66433,999,2123,.55288979E-3,.14989E-3,0,Active
STARLINK-35389,2025-259N,2026-03-20T17:36:01.229184,15.27587417,.0002228,42.9998,211.6835,282.5541,77.5062,0,U,66434,999,2118,.57046574E-3,.15473E-3,0,Active
STARLINK-35502,2025-259P,2026-03-21T01:17:32.731584,15.27578737,.00014519,42.9994,209.7883,264.1305,95.9381,0,U,66435,999,2123,.88278761E-3,.24109E-3,0,Active
STARLINK-35501,2025-259Q,2026-03-21T01:24:58.281696,15.27621681,.00014383,42.9975,209.8243,270.7228,89.3459,0,U,66436,999,2123,.18936239E-2,.52283E-3,0,Active
STARLINK-35474,2025-259R,2026-03-20T18:24:07.365888,15.27597002,.0001853,43.0022,211.9392,271.7152,88.3487,0,U,66437,999,2118,.59672917E-3,.16203E-3,0,Active
STARLINK-34681,2025-259S,2026-03-21T02:05:38.749920,15.27606992,.00019294,43.0002,210.0374,263.4674,96.5958,0,U,66438,999,2112,.59966307E-3,.1629E-3,0,Active
STARLINK-35327,2025-259T,2026-03-21T01:15:42.071328,15.27594686,.00011894,43.0001,209.7774,278.7722,81.2995,0,U,66439,999,2123,.14005955E-2,.38498E-3,0,Active
STARLINK-35405,2025-259U,2026-03-21T01:58:15.841920,15.27564971,.00009401,43.0033,210.0032,272.5504,87.5240,0,U,66440,999,2123,.95356776E-3,.26059E-3,0,Active
STARLINK-35426,2025-259V,2026-03-21T01:47:09.842208,15.27642504,.00010063,43.0013,209.9369,261.8853,98.1885,0,U,66441,999,2123,.22764977E-2,.63039E-3,0,Active
STARLINK-34724,2025-259W,2026-03-20T17:21:25.709472,15.27623411,.00016493,43.0012,212.4688,274.4643,85.6021,0,U,66442,999,2117,.13769286E-2,.37873E-3,0,Active
STARLINK-35219,2025-259X,2026-03-21T01:06:39.320352,15.27596057,.00006447,42.9973,210.5922,283.5832,76.4948,0,U,66443,999,2111,.72018436E-3,.19618E-3,0,Active
STARLINK-35360,2025-259Y,2026-03-20T17:30:27.410688,15.27624583,.00018171,42.9972,211.6470,288.0751,71.9902,0,U,66444,999,2118,.16855764E-2,.46478E-3,0,Active
STARLINK-34698,2025-259Z,2026-03-21T01:01:06.521376,15.27599810,.00014925,42.9996,210.5626,265.0797,94.9885,0,U,66445,999,2111,.68934494E-3,.18767E-3,0,Active
STARLINK-34986,2025-259AA,2026-03-20T17:01:04.616544,15.27582567,.00015574,42.9994,212.3614,274.7198,85.3476,0,U,66446,999,2117,.14672585E-2,.40338E-3,0,Active
STARLINK-34851,2025-259AB,2026-03-21T01:10:21.006336,15.27605198,.00011608,43.0016,210.6084,277.3036,82.7683,0,U,66447,999,2111,.74254261E-3,.20243E-3,0,Active
STARLINK-35355,2025-259AC,2026-03-21T01:02:57.715584,15.27587631,.00015379,42.9996,210.5699,268.2727,91.7949,0,U,66448,999,2122,.78654086E-3,.2145E-3,0,Active
STARLINK-34720,2025-259AD,2026-03-20T20:13:05.049120,15.27602048,.00013203,42.9988,211.6376,261.8916,98.1786,0,U,66449,999,2108,.79066397E-3,.21574E-3,0,Active
STARLINK-35334,2025-259AE,2026-03-20T15:25:03.523296,15.27580687,.0001925,42.9983,212.7187,258.0495,102.0141,0,U,66450,999,2116,.12567E-2,.34484E-3,0,Active
VIASAT-3 F2,2025-261A,2026-03-21T03:37:49.176768,1.00268524,.00010471,0.0802,271.2782,132.5820,110.2541,0,U,66454,999,190,0,-.231E-5,0,Active
STARLINK-35643,2025-262A,2026-03-21T03:19:20.941248,15.27609671,.0001832,43.0047,231.8372,274.3948,85.6695,0,U,66456,999,2065,.75511139E-3,.20594E-3,0,Active
STARLINK-35466,2025-262B,2026-03-20T19:15:36.765504,15.27581683,.00011982,43.0012,233.6156,260.4803,99.5913,0,U,66457,999,2060,.80827899E-3,.22048E-3,0,Active
STARLINK-35684,2025-262C,2026-03-21T03:10:05.415168,15.27597677,.00017095,43.0046,231.7877,268.5477,91.5179,0,U,66458,999,2065,.75748307E-3,.20652E-3,0,Active
STARLINK-35449,2025-262D,2026-03-20T19:06:21.321504,15.27609055,.00028092,43.0074,233.5666,277.3205,82.7327,0,U,66459,999,2060,.78703282E-3,.21479E-3,0,Active
STARLINK-35424,2025-262E,2026-03-21T02:29:23.201664,15.27596798,.0001527,42.9979,231.5710,277.8191,82.2488,0,U,66460,999,2065,.85720144E-3,.23413E-3,0,Active
STARLINK-35132,2025-262F,2026-03-20T18:34:56.452800,15.27583679,.00018614,42.9993,233.3980,256.2170,103.8475,0,U,66461,999,2060,.1484152E-2,.4081E-3,0,Active
STARLINK-35499,2025-262G,2026-03-20T16:47:47.339808,15.27592577,.00020854,42.9995,233.7011,269.9523,90.1090,0,U,66462,999,2059,.54386584E-3,.1474E-3,0,Active
STARLINK-35463,2025-262H,2026-03-21T02:53:26.053152,15.27596845,.00018552,42.9998,231.6965,271.9607,88.1033,0,U,66463,999,2065,.70765129E-3,.19272E-3,0,Active
STARLINK-35435,2025-262J,2026-03-20T16:34:50.405088,15.27595321,.00016016,43.0002,233.6275,261.6649,98.4021,0,U,66464,999,2059,.11517002E-2,.31581E-3,0,Active
STARLINK-35448,2025-262K,2026-03-21T03:08:14.379072,15.27595666,.00015509,43.0015,231.7744,267.0578,93.0096,0,U,66465,999,2065,.68179091E-3,.18556E-3,0,Active
STARLINK-35388,2025-262L,2026-03-20T16:55:12.489888,15.27615325,.00012633,42.9993,233.7373,259.3379,100.7331,0,U,66466,999,2059,.88212708E-3,.24118E-3,0,Active
STARLINK-35682,2025-262M,2026-03-21T03:32:17.408544,15.27609981,.0002275,43.0029,231.9037,266.2980,93.7612,0,U,66467,999,2065,.82103836E-3,.22421E-3,0,Active
STARLINK-35331,2025-262N,2026-03-21T03:21:11.507328,15.27594972,.00018283,43.0037,231.8392,270.0367,90.0275,0,U,66468,999,2065,.74833506E-3,.20397E-3,0,Active
STARLINK-35451,2025-262P,2026-03-20T18:16:24.179808,15.27592449,.0001902,43.0026,233.2983,276.3652,83.6983,0,U,66469,999,2060,.78002373E-3,.21273E-3,0,Active
STARLINK-35655,2025-262Q,2026-03-21T02:55:17.287968,15.27601547,.00012976,42.9984,231.7033,275.8979,84.1725,0,U,66470,999,2065,.85441301E-3,.23339E-3,0,Active
STARLINK-35569,2025-262R,2026-03-20T20:16:27.190560,15.27609390,.00020738,43.0020,233.0639,280.0529,80.0089,0,U,66471,999,2061,.10416926E-2,.2854E-3,0,Active
